H1 CPF 01  gfz 2022 11 07 01  8111 tandemx   
H2 1003001  6202 36605    2022 11 07 00 59 42 2022 11 12 00 00 42   120 1 1  0 0 0
H9
10 0 59892  29502.000000  0   -5799166.957   3717160.620    118679.951
10 0 59892  29622.000000  0   -5637284.626   3824251.684   1020153.592
10 0 59892  29742.000000  0   -5375582.310   3860772.923   1903661.272
10 0 59892  29862.000000  0   -5019872.988   3824376.722   2753639.477
10 0 59892  29982.000000  0   -4577660.322   3714119.067   3555117.738
10 0 59892  30102.000000  0   -4057977.272   3530502.495   4293989.428
10 0 59892  30222.000000  0   -3471196.159   3275488.278   4957263.164
10 0 59892  30342.000000  0   -2828815.884   2952480.032   5533292.199
10 0 59892  30462.000000  0   -2143229.646   2566277.395   6011976.843
10 0 59892  30582.000000  0   -1427480.411   2123001.623   6384937.314
10 0 59892  30702.000000  0    -695008.129   1629994.769   6645653.445
10 0 59892  30822.000000  0      40603.042   1095695.560   6789571.584
10 0 59892  30942.000000  0     765876.404    529493.427   6814179.602
10 0 59892  31062.000000  0    1467688.804    -58436.403   6719047.526
10 0 59892  31182.000000  0    2133506.963   -657314.949   6505835.101
10 0 59892  31302.000000  0    2751610.894  -1255956.681   6178265.196
10 0 59892  31422.000000  0    3311301.704  -1842977.509   5742063.701
10 0 59892  31542.000000  0    3803090.324  -2407011.807   5204864.882
10 0 59892  31662.000000  0    4218862.668  -2936933.091   4576083.343
10 0 59892  31782.000000  0    4552018.957  -3422076.111   3866754.728
10 0 59892  31902.000000  0    4797584.528  -3852455.132   3089345.454
10 0 59892  32022.000000  0    4952289.610  -4218972.945   2257533.809
10 0 59892  32142.000000  0    5014614.119  -4513615.102   1385965.926
10 0 59892  32262.000000  0    4984796.830  -4729625.394    489992.856
10 0 59892  32382.000000  0    4864809.150  -4861658.274   -414607.004
10 0 59892  32502.000000  0    4658293.668  -4905903.250  -1311914.366
10 0 59892  32622.000000  0    4370468.922  -4860178.021  -2186158.285
10 0 59892  32742.000000  0    4008002.736  -4723988.478  -3022000.547
10 0 59892  32862.000000  0    3578857.876  -4498554.182  -3804809.448
10 0 59892  32982.000000  0    3092115.002  -4186799.579  -4520917.212
10 0 59892  33102.000000  0    2557776.866  -3793310.896  -5157856.549
10 0 59892  33222.000000  0    1986558.732  -3324260.948  -5704570.253
10 0 59892  33342.000000  0    1389672.487  -2787306.068  -6151592.628
10 0 59892  33462.000000  0     778606.811  -2191456.927  -6491203.447
10 0 59892  33582.000000  0     164907.150  -1546923.629  -6717551.019
10 0 59892  33702.000000  0    -440038.941   -864939.454  -6826742.253
10 0 59892  33822.000000  0   -1025207.524   -157567.158  -6816901.456
10 0 59892  33942.000000  0   -1580134.245    562509.574  -6688198.567
10 0 59892  34062.000000  0   -2095097.158   1282207.507  -6442846.124
10 0 59892  34182.000000  0   -2561283.009   1988275.618  -6085065.401
10 0 59892  34302.000000  0   -2970936.506   2667533.317  -5621022.284
10 0 59892  34422.000000  0   -3317490.207   3307113.859  -5058732.416
10 0 59892  34542.000000  0   -3595673.542   3894708.203  -4407934.674
10 0 59892  34662.000000  0   -3801597.608   4418804.600  -3679932.401
10 0 59892  34782.000000  0   -3932812.208   4868918.121  -2887405.127
10 0 59892  34902.000000  0   -3988335.617   5235805.911  -2044194.667
10 0 59892  35022.000000  0   -3968656.878   5511663.730  -1165066.797
10 0 59892  35142.000000  0   -3875708.232   5690299.198   -265451.157
10 0 59892  35262.000000  0   -3712807.043   5767273.364    638835.136
10 0 59892  35382.000000  0   -3484570.450   5740009.017   1531872.992
10 0 59892  35502.000000  0   -3196802.142   5607862.701   2397932.083
10 0 59892  35622.000000  0   -2856353.799   5372155.198   3221758.137
10 0 59892  35742.000000  0   -2470966.925   5036161.538   3988847.971
10 0 59892  35862.000000  0   -2049099.218   4605062.973   4685708.997
10 0 59892  35982.000000  0   -1599739.876   4085861.182   5300098.303
10 0 59892  36102.000000  0   -1132217.556   3487256.909   5821237.245
10 0 59892  36222.000000  0    -656006.248   2819495.846   6239996.307
10 0 59892  36342.000000  0    -180533.707   2094186.296   6549048.948
10 0 59892  36462.000000  0     285004.035   1324093.493   6742993.752
10 0 59892  36582.000000  0     731819.947    522911.846   6818443.656
10 0 59892  36702.000000  0    1151700.810   -294978.710   6774080.403
10 0 59892  36822.000000  0    1537157.270  -1114769.893   6610677.192
10 0 59892  36942.000000  0    1881557.383  -1921492.832   6331086.174
10 0 59892  37062.000000  0    2179241.291  -2700291.115   5940192.568
10 0 59892  37182.000000  0    2425615.648  -3436696.151   5444834.546
10 0 59892  37302.000000  0    2617225.618  -4116898.969   4853688.726
10 0 59892  37422.000000  0    2751803.253  -4728013.606   4177124.080
10 0 59892  37542.000000  0    2828292.548  -5258328.185   3427024.028
10 0 59892  37662.000000  0    2846848.783  -5697537.075   2616579.410
10 0 59892  37782.000000  0    2808812.248  -6036949.587   1760055.054
10 0 59892  37902.000000  0    2716656.227  -6269667.444    872534.388
10 0 59892  38022.000000  0    2573912.457  -6390729.273    -30351.034
10 0 59892  38142.000000  0    2385074.503  -6397218.793   -932705.150
10 0 59892  38262.000000  0    2155480.312  -6288330.103  -1818657.799
10 0 59892  38382.000000  0    1891177.795  -6065390.209  -2672651.369
10 0 59892  38502.000000  0    1598776.781  -5731839.526  -3479721.639
10 0 59892  38622.000000  0    1285291.414  -5293166.688  -4225762.083
10 0 59892  38742.000000  0     957980.037  -4756806.544  -4897768.691
10 0 59892  38862.000000  0     624183.479  -4132002.393  -5484061.323
10 0 59892  38982.000000  0     291166.150  -3429636.359  -5974478.679
10 0 59892  39102.000000  0     -34036.632  -2662031.545  -6360543.823
10 0 59892  39222.000000  0    -344761.957  -1842731.146  -6635599.038
10 0 59892  39342.000000  0    -634850.866   -986258.754  -6794909.684
10 0 59892  39462.000000  0    -898765.697   -107863.399  -6835737.525
10 0 59892  39582.000000  0   -1131692.201    776747.069  -6757381.663
10 0 59892  39702.000000  0   -1329625.141   1651679.299  -6561188.778
10 0 59892  39822.000000  0   -1489435.586   2501132.662  -6250532.237
10 0 59892  39942.000000  0   -1608919.774   3309678.277  -5830761.920
10 0 59892  40062.000000  0   -1686829.002   4062536.859  -5309121.798
10 0 59892  40182.000000  0   -1722879.293   4745849.121  -4694636.530
10 0 59892  40302.000000  0   -1717741.455   5346935.866  -3997966.484
10 0 59892  40422.000000  0   -1673010.465   5854540.541  -3231231.631
10 0 59892  40542.000000  0   -1591154.370   6259049.059  -2407808.008
10 0 59892  40662.000000  0   -1475444.497   6552683.635  -1542099.021
10 0 59892  40782.000000  0   -1329867.476   6729663.699   -649283.306
10 0 59892  40902.000000  0   -1159021.373   6786329.895    254953.567
10 0 59892  41022.000000  0    -967997.662   6721228.890   1154701.435
10 0 59892  41142.000000  0    -762252.545   6535152.238   2034116.555
10 0 59892  41262.000000  0    -547470.653   6231126.802   2877710.261
10 0 59892  41382.000000  0    -329424.958   5814361.464   3670628.246
10 0 59892  41502.000000  0    -113837.129   5292152.425   4398916.888
10 0 59892  41622.000000  0      93758.974   4673747.466   5049775.461
10 0 59892  41742.000000  0     288148.746   3970167.743   5611779.709
10 0 59892  41862.000000  0     464557.683   3194004.384   6075077.817
10 0 59892  41982.000000  0     618759.719   2359184.632   6431559.766
10 0 59892  42102.000000  0     747171.090   1480715.927   6674992.828
10 0 59892  42222.000000  0     846928.292    574412.206   6801124.811
10 0 59892  42342.000000  0     915948.522   -343391.465   6807752.800
10 0 59892  42462.000000  0     952971.738  -1256132.179   6694760.329
10 0 59892  42582.000000  0     957583.576  -2147318.116   6464119.824
10 0 59892  42702.000000  0     930218.807  -3000826.654   6119860.938
10 0 59892  42822.000000  0     872144.805  -3801198.456   5668003.556
10 0 59892  42942.000000  0     785426.002  -4533919.130   5116456.333
10 0 59892  43062.000000  0     672870.886  -5185686.138   4474884.949
10 0 59892  43182.000000  0     537961.313  -5744658.597   3754549.330
10 0 59892  43302.000000  0     384764.889  -6200683.048   2968108.922
10 0 59892  43422.000000  0     217832.780  -6545488.239   2129400.084
10 0 59892  43542.000000  0      42084.914  -6772843.868   1253190.145
10 0 59892  43662.000000  0    -137313.852  -6878682.207    354913.000
10 0 59892  43782.000000  0    -315085.027  -6861176.482   -549612.300
10 0 59892  43902.000000  0    -485970.118  -6720771.653  -1444470.285
10 0 59892  44022.000000  0    -644863.287  -6460169.008  -2313937.250
10 0 59892  44142.000000  0    -786940.151  -6084267.221  -3142763.650
10 0 59892  44262.000000  0    -907779.790  -5600060.422  -3916446.083
10 0 59892  44382.000000  0   -1003476.572  -5016495.273  -4621482.263
10 0 59892  44502.000000  0   -1070739.009  -4344292.555  -5245602.690
10 0 59892  44622.000000  0   -1106973.896  -3595739.313  -5777976.911
10 0 59892  44742.000000  0   -1110353.770  -2784455.853  -6209391.999
10 0 59892  44862.000000  0   -1079866.784  -1925142.382  -6532401.071
10 0 59892  44982.000000  0   -1015348.413  -1033311.077  -6741440.045
10 0 59892  45102.000000  0    -917494.997   -125008.612  -6832913.650
10 0 59892  45222.000000  0    -787858.090    783467.608  -6805249.958
10 0 59892  45342.000000  0    -628819.939   1675854.123  -6658923.770
10 0 59892  45462.000000  0    -443551.407   2536204.822  -6396449.371
10 0 59892  45582.000000  0    -235952.157   3349169.550  -6022343.377
10 0 59892  45702.000000  0     -10572.921   4100265.659  -5543056.054
10 0 59892  45822.000000  0     227478.195   4776135.754  -4966870.149
10 0 59892  45942.000000  0     472643.539   5364789.380  -4303769.846
99
